     3.00           N                   E                   RINEX VERSION / TYPE
BRD_USR             ESA                 20190103 222121  UTCPGM / RUN BY / DATE
 GAL   3.7750E+01 -1.9531E-02  1.4648E-03  0.0000E+00       IONOSPHERIC CORR
GAUT  2.7939677238E-09-1.776356839E-15 345600 2034 GSTB   0 TIME SYSTEM CORR
GPGA -3.0559021980E-09-1.154631946E-14 432000 2034 GSTB   0 TIME SYSTEM CORR
                                                            END OF HEADER
E24 2019 01 03 20 10 00 6.304634502158E-03-1.965361207112E-11 0.000000000000E+00
     5.700000000000E+01 1.939062500000E+02 2.576535894491E-09-2.925330840297E+00
     9.020790457726E-06 4.611294716597E-04 8.493661880493E-06 5.440626001358E+03
     4.182000000000E+05 1.862645149231E-09-2.821393500970E+00-1.005828380585E-07
     9.879058184027E-01 1.670937500000E+02 4.399745316881E-01-5.378795476993E-09
     1.350056235261E-10 2.580000000000E+02 2.034000000000E+03 0.000000000000E+00
     3.120000000000E+00 0.000000000000E+00 4.284083843231E-08 0.000000000000E+00
     4.189500000000E+05 0.000000000000E+00 0.000000000000E+00 0.000000000000E+00
E15 2019 01 03 20 10 00 9.239478968084E-04-9.947598300641E-13 0.000000000000E+00
     5.700000000000E+01-1.783437500000E+02 2.571535686212E-09 1.056058367493E+00
    -8.419156074524E-06 3.795345546678E-04 7.890164852142E-06 5.440602066040E+03
     4.182000000000E+05 2.421438694000E-08-7.444587096249E-01 5.587935447693E-09
     9.852283886599E-01 1.831875000000E+02-1.705785955872E+00-5.389510209019E-09
    -2.496532562031E-10 5.210000000000E+02 2.034000000000E+03 0.000000000000E+00
     3.120000000000E+00 4.550000000000E+02 1.396983861923E-09 1.164153218269E-09
     4.193350000000E+05 0.000000000000E+00 0.000000000000E+00 0.000000000000E+00
E15 2019 01 03 20 10 00 9.239477803931E-04-9.947598300641E-13 0.000000000000E+00
     5.700000000000E+01-1.783437500000E+02 2.571535686212E-09 1.056058367493E+00
    -8.419156074524E-06 3.795345546678E-04 7.890164852142E-06 5.440602066040E+03
     4.182000000000E+05 2.421438694000E-08-7.444587096249E-01 5.587935447693E-09
     9.852283886599E-01 1.831875000000E+02-1.705785955872E+00-5.389510209019E-09
    -2.496532562031E-10 2.580000000000E+02 2.034000000000E+03 0.000000000000E+00
     3.120000000000E+00 5.600000000000E+01 1.396983861923E-09 0.000000000000E+00
     4.193500000000E+05 0.000000000000E+00 0.000000000000E+00 0.000000000000E+00
E01 2019 01 03 20 20 00-5.130929057486E-04-8.114398042380E-12 0.000000000000E+00
     5.800000000000E+01 2.150937500000E+02 2.604037040024E-09 3.709717550912E-02
     9.929761290550E-06 1.159477978945E-04 8.037313818932E-06 5.440625249863E+03
     4.188000000000E+05 3.166496753693E-08-2.824873559254E+00 4.470348358154E-08
     9.903393914051E-01 1.820000000000E+02-8.724876325777E-01-5.389867366753E-09
     1.775073938955E-10 5.210000000000E+02 2.034000000000E+03 0.000000000000E+00
     3.120000000000E+00 0.000000000000E+00-4.656612873077E-09-5.355104804039E-09
     4.194850000000E+05 0.000000000000E+00 0.000000000000E+00 0.000000000000E+00
E03 2019 01 03 20 20 00-1.181432744488E-04-4.234834705130E-12 0.000000000000E+00
     5.800000000000E+01-2.625000000000E+00 3.829802383785E-09-2.526788113313E+00
    -2.905726432800E-07 2.869605086744E-04 3.883615136147E-06 5.440606468201E+03
     4.188000000000E+05 5.587935447693E-08 1.366080184826E+00-1.862645149231E-09
     9.521438833346E-01 2.518125000000E+02 6.377024178597E-01-5.889888194628E-09
     8.000333245992E-11 5.210000000000E+02 2.034000000000E+03 0.000000000000E+00
     3.120000000000E+00 0.000000000000E+00-1.862645149231E-09-2.095475792885E-09
     4.194850000000E+05 0.000000000000E+00 0.000000000000E+00 0.000000000000E+00
E04 2019 01 03 20 20 00-1.925986143760E-04-7.858602657507E-12 0.000000000000E+00
     5.800000000000E+01-1.906250000000E+00 3.839802800342E-09-1.363676989317E+00
    -1.173466444016E-07 8.639763109386E-05 4.129484295845E-06 5.440601642609E+03
     4.188000000000E+05 2.235174179077E-08 1.366130479949E+00 9.313225746155E-09
     9.521886574053E-01 2.509375000000E+02 1.835251470230E+00-5.788455398116E-09
     8.286059433349E-11 5.210000000000E+02 2.034000000000E+03 0.000000000000E+00
     3.120000000000E+00 0.000000000000E+00-7.916241884232E-09-8.847564458847E-09
     4.194850000000E+05 0.000000000000E+00 0.000000000000E+00 0.000000000000E+00
E05 2019 01 03 20 20 00 1.312523381785E-04-6.522782314278E-12 0.000000000000E+00
     5.800000000000E+01-1.218750000000E+00 3.796943872239E-09-2.597587755614E+00
    -5.587935447693E-08 1.538911601529E-04 3.749504685402E-06 5.440603197098E+03
     4.188000000000E+05-2.607703208923E-08 1.366063209124E+00 2.048909664154E-08
     9.521576888925E-01 2.527500000000E+02 1.495958183566E+00-5.855601052145E-09
     1.189335254873E-10 5.210000000000E+02 2.034000000000E+03 0.000000000000E+00
     3.120000000000E+00 0.000000000000E+00-1.629814505577E-09-1.862645149231E-09
     4.194850000000E+05 0.000000000000E+00 0.000000000000E+00 0.000000000000E+00
E08 2019 01 03 20 20 00 6.430511304643E-03-7.446487870766E-12 0.000000000000E+00
     5.800000000000E+01-2.437500000000E+00 3.726226640868E-09 3.105303020564E+00
    -1.396983861923E-07 2.392166061327E-04 3.997236490250E-06 5.440605985641E+03
     4.188000000000E+05-3.539025783539E-08 1.357428519489E+00-5.029141902924E-08
     9.581285934218E-01 2.550937500000E+02 5.050349591104E-01-5.793455606395E-09
     3.250135381184E-11 5.210000000000E+02 2.034000000000E+03 0.000000000000E+00
     3.120000000000E+00 0.000000000000E+00-8.381903171539E-09-9.778887033463E-09
     4.194850000000E+05 0.000000000000E+00 0.000000000000E+00 0.000000000000E+00
E09 2019 01 03 20 20 00 6.568972719833E-03-1.126920778916E-11 0.000000000000E+00
     5.800000000000E+01-1.000000000000E+00 3.712654646968E-09-4.761455630196E-01
     5.587935447693E-09 2.582815941423E-04 4.036352038383E-06 5.440602661133E+03
     4.188000000000E+05 9.313225746155E-09 1.357424256546E+00-3.166496753693E-08
     9.581592825172E-01 2.531875000000E+02 1.582403215388E-01-5.757739832975E-09
     1.207193141583E-10 5.210000000000E+02 2.034000000000E+03 0.000000000000E+00
     3.120000000000E+00 0.000000000000E+00-3.259629011154E-09-3.958120942116E-09
     4.194850000000E+05 0.000000000000E+00 0.000000000000E+00 0.000000000000E+00
E13 2019 01 03 20 20 00 3.812944050878E-04 4.689582056017E-13 0.000000000000E+00
     5.800000000000E+01-1.800312500000E+02 2.520819287956E-09 2.706089492975E-01
    -8.376315236092E-06 3.293961053714E-04 8.154660463333E-06 5.440602161407E+03
     4.188000000000E+05-3.725290298462E-09-7.444505582453E-01-4.656612873077E-08
     9.852709317805E-01 1.790312500000E+02-1.628138139494E+00-5.344865492244E-09
    -2.732256666600E-10 5.210000000000E+02 2.034000000000E+03 0.000000000000E+00
     3.120000000000E+00 4.550000000000E+02-4.423782229424E-09-5.355104804039E-09
     4.194850000000E+05 0.000000000000E+00 0.000000000000E+00 0.000000000000E+00
E14 2019 01 03 20 20 00 6.465227867011E-03-5.542233338929E-12 0.000000000000E+00
     5.800000000000E+01-3.834375000000E+01 6.618847130122E-09 5.694859348608E-02
    -2.805143594742E-06 1.663612667471E-01 6.018206477165E-06 5.289312574387E+03
     4.188000000000E+05-3.386288881302E-06-1.339078776680E+00-9.182840585709E-07
     8.825715649340E-01 2.555625000000E+02 1.451239295565E+00-1.097367138317E-08
    -3.753727786401E-10 5.210000000000E+02 2.034000000000E+03 0.000000000000E+00
     3.120000000000E+00 4.550000000000E+02 3.306195139885E-08 3.702007234097E-08
     4.194850000000E+05 0.000000000000E+00 0.000000000000E+00 0.000000000000E+00
E15 2019 01 03 20 20 00 9.239471983165E-04-9.947598300641E-13 0.000000000000E+00
     5.800000000000E+01-1.796562500000E+02 2.566178320199E-09 1.129480034440E+00
    -8.484348654747E-06 3.795742522925E-04 7.767230272293E-06 5.440602804184E+03
     4.188000000000E+05 2.048909664154E-08-7.444619309705E-01 7.450580596924E-09
     9.852282262760E-01 1.857187500000E+02-1.704821979170E+00-5.392367470892E-09
    -2.503675716715E-10 5.210000000000E+02 2.034000000000E+03 0.000000000000E+00
     3.120000000000E+00 4.550000000000E+02 1.396983861923E-09 1.164153218269E-09
     4.194850000000E+05 0.000000000000E+00 0.000000000000E+00 0.000000000000E+00
E19 2019 01 03 20 20 00-9.394832886755E-06 3.694822225953E-13 0.000000000000E+00
     5.800000000000E+01-1.625000000000E+00 3.695153917993E-09-8.588657630464E-01
    -2.644956111908E-07 1.407753443345E-04 4.136934876442E-06 5.440600982666E+03
     4.188000000000E+05 9.313225746155E-09 1.362782894749E+00 1.117587089539E-08
     9.579168155489E-01 2.491250000000E+02 2.191100116572E+00-5.729524371974E-09
     6.357407668690E-11 5.210000000000E+02 2.034000000000E+03 0.000000000000E+00
     3.120000000000E+00 0.000000000000E+00-8.614733815193E-09-9.080395102501E-09
     4.194850000000E+05 0.000000000000E+00 0.000000000000E+00 0.000000000000E+00
E21 2019 01 03 20 20 00-5.126406904310E-04-1.861621967691E-12 0.000000000000E+00
     5.800000000000E+01 2.079375000000E+02 2.498675508436E-09 3.448535296080E-01
     9.598210453987E-06 5.088339094073E-05 7.240101695061E-06 5.440637344360E+03
     4.188000000000E+05 3.725290298462E-08-2.827479706850E+00-1.303851604462E-08
     9.899044190467E-01 1.982187500000E+02-3.784016000255E-01-5.337008022092E-09
     1.539349834385E-10 5.210000000000E+02 2.034000000000E+03 0.000000000000E+00
     3.120000000000E+00 0.000000000000E+00-2.561137080193E-09-3.026798367500E-09
     4.194850000000E+05 0.000000000000E+00 0.000000000000E+00 0.000000000000E+00
